ONEWEB-0256             
1 48974U 21060H   23348.68559928  .00000027  00000+0  37552-4 0  9997
2 48974  87.9075  51.0020 0001640  99.7036 260.4280 13.16595149120451
ONEWEB-0257             
1 48975U 21060J   23348.71938592  .00000100  00000+0  22693-3 0  9991
2 48975  87.9081  50.9693 0001579 105.9827 254.1478 13.16594007119125
ONEWEB-0258             
1 48976U 21060K   23348.72149243  .00000060  00000+0  12249-3 0  9991
2 48976  87.9082  50.9980 0001761 102.9421 257.1907 13.16594267119135
ONEWEB-0259             
1 48977U 21060L   23348.71515492  .00000143  00000+0  34101-3 0  9997
2 48977  87.9082  50.9838 0002036 111.4151 248.7197 13.16596063119165
ONEWEB-0260             
1 48978U 21060M   23349.24080198  .00002293  00000+0  59649-2 0  9998
2 48978  87.9081  50.9092 0001239 135.9949 224.1281 13.16584304120492
ONEWEB-0261             
1 48979U 21060N   23348.67504371 -.00000156  00000+0 -44150-3 0  9999
2 48979  87.9075  51.0122 0001623 124.0849 236.0436 13.16595423119190
ONEWEB-0262             
1 48980U 21060P   23349.18802627  .00000084  00000+0  18611-3 0  9994
2 48980  87.9081  50.8764 0002060 114.5926 245.5420 13.16593695120520
ONEWEB-0263             
1 48981U 21060Q   23348.68771506  .00000073  00000+0  15616-3 0  9990
2 48981  87.9075  50.9890 0001792 120.7724 239.3584 13.16593577120421
